*******************************************************************************
JPL/HORIZONS                 265 Anna (A887 DA)            2023-Sep-04 11:05:20
Rec #:     265 (+COV) Soln.date: 2023-Aug-23_00:13:21   # obs: 3977 (1899-2023)
 
IAU76/J2000 helio. ecliptic osc. elements (au, days, deg., period=Julian yrs):
 
  EPOCH=  2457384.5 ! 2015-Dec-28.00 (TDB)         Residual RMS= .23854
   EC= .2669779667959123   QR= 1.773881179231682   TP= 2457275.9704054813
   OM= 335.5659553166271   W=  251.542063042916    IN= 25.64501460745869
   A= 2.41995615258375     MA= 28.41456480298798   ADIST= 3.066031125935818
   PER= 3.76461            N= .261813977           ANGMOM= .025788628
   DAN= 2.45498            DDN= 2.0723             L= 225.2488002
   B= -24.2381097          MOID= .91414899         TP= 2015-Sep-10.4704054813
 
Asteroid physical parameters (km, seconds, rotational period in hours):
   GM= n.a.                RAD= 11.3835            ROTPER= 11.681
   H= 11.92                G= .150                 B-V= n.a.
                           ALBEDO= .113            STYP= n.a.

ASTEROID comments: 
1: soln ref.= JPL#56, OCC=0
2: source=ORB
*******************************************************************************


*******************************************************************************
Ephemeris / API_USER Mon Sep  4 11:05:20 2023 Pasadena, USA      / Horizons
*******************************************************************************
Target body name: 265 Anna (A887 DA)              {source: JPL#56}
Center body name: Solar System Barycenter (0)     {source: DE441}
Center-site name: BODY CENTER
*******************************************************************************
Start time      : A.D. 2023-Aug-12 00:00:00.0000 TDB
Stop  time      : A.D. 2023-Aug-13 00:00:00.0000 TDB
Step-size       : 2880 minutes
*******************************************************************************
Center geodetic : 0.0, 0.0, 0.0                   {E-lon(deg),Lat(deg),Alt(km)}
Center cylindric: 0.0, 0.0, 0.0                   {E-lon(deg),Dxy(km),Dz(km)}
Center radii    : (undefined)
Small perturbers: Yes                             {source: SB441-N16}
Output units    : KM-S
Calendar mode   : Mixed Julian/Gregorian
Output type     : GEOMETRIC cartesian states
Output format   : 2 (position and velocity)
Reference frame : Ecliptic of J2000.0
*******************************************************************************
Initial IAU76/J2000 heliocentric ecliptic osculating elements (au, days, deg.):
  EPOCH=  2457384.5 ! 2015-Dec-28.00 (TDB)         Residual RMS= .23854        
   EC= .2669779667959123   QR= 1.773881179231682   TP= 2457275.9704054813      
   OM= 335.5659553166271   W=  251.542063042916    IN= 25.64501460745869       
  Equivalent ICRF heliocentric cartesian coordinates (au, au/d):
   X= 2.523663430570908E-01  Y=-1.322812750942052E+00  Z=-1.353576473695823E+00
  VX= 1.347073065343486E-02 VY=-2.105764038457234E-03 VZ= 1.335376934339577E-03
Asteroid physical parameters (km, seconds, rotational period in hours):        
   GM= n.a.                RAD= 11.3835            ROTPER= 11.681              
   H= 11.92                G= .150                 B-V= n.a.                   
                           ALBEDO= .113            STYP= n.a.                  
*******************************************************************************
JDTDB
   X     Y     Z
   VX    VY    VZ
*******************************************************************************
$$SOE
2460168.500000000 = A.D. 2023-Aug-12 00:00:00.0000 TDB 
 X = 1.036511487739131E+08 Y =-2.634177432348963E+08 Z =-9.408849369316097E+07
 VX= 2.220901339719249E+01 VY= 1.692419782778553E+00 VZ= 5.162496586096152E+00
$$EOE
*******************************************************************************
 
TIME

  Barycentric Dynamical Time ("TDB" or T_eph) output was requested. This
continuous coordinate time is equivalent to the relativistic proper time
of a clock at rest in a reference frame co-moving with the solar system
barycenter but outside the system's gravity well. It is the independent
variable in the solar system relativistic equations of motion.

  TDB runs at a uniform rate of one SI second per second and is independent
of irregularities in Earth's rotation.
 
CALENDAR SYSTEM

  Mixed calendar mode was active such that calendar dates after AD 1582-Oct-15
(if any) are in the modern Gregorian system. Dates prior to 1582-Oct-5 (if any)
are in the Julian calendar system, which is automatically extended for dates
prior to its adoption on 45-Jan-1 BC.  The Julian calendar is useful for
matching historical dates. The Gregorian calendar more accurately corresponds
to the Earth's orbital motion and seasons. A "Gregorian-only" calendar mode is
available if such physical events are the primary interest.

REFERENCE FRAME AND COORDINATES

  Ecliptic at the standard reference epoch

    Reference epoch: J2000.0
    X-Y plane: adopted Earth orbital plane at the reference epoch
               Note: IAU76 obliquity of 84381.448 arcseconds wrt ICRF X-Y plane
    X-axis   : ICRF
    Z-axis   : perpendicular to the X-Y plane in the directional (+ or -) sense
               of Earth's north pole at the reference epoch.

  Symbol meaning:

    JDTDB    Julian Day Number, Barycentric Dynamical Time
      X      X-component of position vector (km)
      Y      Y-component of position vector (km)
      Z      Z-component of position vector (km)
      VX     X-component of velocity vector (km/sec)                           
      VY     Y-component of velocity vector (km/sec)                           
      VZ     Z-component of velocity vector (km/sec)                           

ABERRATIONS AND CORRECTIONS

 Geometric state vectors have NO corrections or aberrations applied.

Computations by ...

    Solar System Dynamics Group, Horizons On-Line Ephemeris System
    4800 Oak Grove Drive, Jet Propulsion Laboratory
    Pasadena, CA  91109   USA

    General site: https://ssd.jpl.nasa.gov/
    Mailing list: https://ssd.jpl.nasa.gov/email_list.html
    System news : https://ssd.jpl.nasa.gov/horizons/news.html
    User Guide  : https://ssd.jpl.nasa.gov/horizons/manual.html
    Connect     : browser        https://ssd.jpl.nasa.gov/horizons/app.html#/x
                  API            https://ssd-api.jpl.nasa.gov/doc/horizons.html
                  command-line   telnet ssd.jpl.nasa.gov 6775
                  e-mail/batch   https://ssd.jpl.nasa.gov/ftp/ssd/hrzn_batch.txt
                  scripts        https://ssd.jpl.nasa.gov/ftp/ssd/SCRIPTS
    Author      : Jon.D.Giorgini@jpl.nasa.gov
*******************************************************************************
